     2              NAVIGATION DATA                         RINEX VERSION / TYPE
CCRINEXN V1.6.0 UX  CDDIS               02-FEB-21 18:31     PGM / RUN BY / DATE 
IGS BROADCAST EPHEMERIS FILE                                COMMENT             
    0.8382D-08 -0.7451D-08 -0.5960D-07  0.5960D-07          ION ALPHA           
    0.8806D+05 -0.3277D+05 -0.1966D+06  0.1966D+06          ION BETA            
    0.000000000000D+00 0.000000000000D+00   319488     2143 DELTA-UTC: A0,A1,T,W
    18                                                      LEAP SECONDS        
                                                            END OF HEADER       
15 21  2  1  0  0  0.0-0.172488857061D-03 0.261479726760D-11 0.000000000000D+00
    0.570000000000D+02-0.467500000000D+02 0.501770900772D-08 0.128109518036D+01
   -0.241026282310D-05 0.130421782378D-01 0.123009085655D-04 0.515356556702D+04
    0.864000000000D+05-0.201165676117D-06 0.540276528366D+00 0.242143869400D-07
    0.929019162749D+00 0.130156250000D+03 0.963834401103D+00-0.837856328651D-08
    0.214294640518D-11 0.100000000000D+01 0.214300000000D+04 0.000000000000D+00
    0.200000000000D+01 0.000000000000D+00-0.107102096081D-07 0.570000000000D+02
    0.792180000000D+05 0.400000000000D+01 0.000000000000D+00 0.000000000000D+00
16 21  2  1  0  0  0.0-0.273386482149D-03-0.557065504836D-11 0.000000000000D+00
    0.420000000000D+02-0.410625000000D+02 0.449232998072D-08-0.309611746181D+01
   -0.223144888878D-05 0.121307101799D-01 0.813789665699D-05 0.515363821602D+04
    0.864000000000D+05-0.651925802231D-07 0.283769143827D+01-0.184401869774D-06
    0.975380170442D+00 0.231406250000D+03 0.646999313455D+00-0.786247036059D-08
   -0.520021660990D-09 0.100000000000D+01 0.214300000000D+04 0.000000000000D+00
    0.200000000000D+01 0.000000000000D+00-0.102445483208D-07 0.420000000000D+02
    0.792180000000D+05 0.400000000000D+01 0.000000000000D+00 0.000000000000D+00
17 21  2  1  0  0  0.0 0.387392938137D-03 0.477484718431D-11 0.000000000000D+00
    0.820000000000D+02 0.460000000000D+02 0.380087260732D-08 0.218698541370D+01
    0.234879553318D-05 0.135477355216D-01 0.114813446999D-04 0.515354366302D+04
    0.864000000000D+05 0.171363353729D-06-0.242934983144D+01-0.134110450745D-06
    0.983041501681D+00 0.163687500000D+03-0.158175113721D+01-0.745852496322D-08
   -0.118933525487D-09 0.100000000000D+01 0.214300000000D+04 0.000000000000D+00
    0.280000000000D+01 0.000000000000D+00-0.111758708954D-07 0.820000000000D+02
    0.792180000000D+05 0.400000000000D+01 0.000000000000D+00 0.000000000000D+00
18 21  2  1  0  0  0.0 0.344912521541D-03 0.216004991671D-11 0.000000000000D+00
    0.117000000000D+03 0.738125000000D+02 0.465197948790D-08 0.204085074220D+00
    0.363215804100D-05 0.118892546743D-02 0.353343784809D-05 0.515368785858D+04
    0.864000000000D+05 0.428408384323D-07-0.141886289233D+01-0.167638063431D-07
    0.966482834347D+00 0.313437500000D+03 0.304529425262D+01-0.844749472921D-08
    0.202865593023D-09 0.100000000000D+01 0.214300000000D+04 0.000000000000D+00
    0.200000000000D+01 0.000000000000D+00-0.838190317154D-08 0.373000000000D+03
    0.792180000000D+05 0.400000000000D+01 0.000000000000D+00 0.000000000000D+00
19 21  2  1  0  0  0.0-0.444650650024D-04 0.500222085975D-11 0.000000000000D+00
    0.144000000000D+03 0.669062500000D+02 0.383408827659D-08-0.152968482800D+01
    0.359676778317D-05 0.900582503527D-02 0.112894922495D-04 0.515362358856D+04
    0.864000000000D+05-0.122934579849D-06-0.238406648235D+01 0.206753611565D-06
    0.981434813865D+00 0.175625000000D+03 0.177582406739D+01-0.772389315973D-08
   -0.282154610015D-10 0.100000000000D+01 0.214300000000D+04 0.000000000000D+00
    0.200000000000D+01 0.000000000000D+00-0.158324837685D-07 0.144000000000D+03
    0.830580000000D+05 0.400000000000D+01 0.000000000000D+00 0.000000000000D+00
20 21  2  1  0  0  0.0 0.524905975908D-03-0.227373675443D-12 0.000000000000D+00
    0.500000000000D+02-0.890000000000D+02 0.528164857329D-08-0.516244106611D+00
   -0.470504164696D-05 0.585676112678D-02 0.366382300854D-05 0.515366865158D+04
    0.864000000000D+05 0.521540641785D-07-0.535433409328D+00-0.150874257088D-06
    0.937035090701D+00 0.299031250000D+03 0.284339947397D+01-0.875143596101D-08
   -0.355729103259D-09 0.100000000000D+01 0.214300000000D+04 0.000000000000D+00
    0.200000000000D+01 0.000000000000D+00-0.838190317154D-08 0.500000000000D+02
    0.792180000000D+05 0.400000000000D+01 0.000000000000D+00 0.000000000000D+00
21 21  2  1  0  0  0.0 0.917147845030D-04 0.329691829393D-11 0.000000000000D+00
    0.115000000000D+03 0.980625000000D+02 0.476376985871D-08 0.249451435426D+01
    0.516138970852D-05 0.242620137287D-01 0.423565506935D-05 0.515373142433D+04
    0.864000000000D+05 0.424683094025D-06-0.151299663976D+01-0.707805156708D-07
    0.955699750034D+00 0.284187500000D+03-0.120092681318D+01-0.817926927083D-08
    0.996470078407D-10 0.100000000000D+01 0.214300000000D+04 0.000000000000D+00
    0.200000000000D+01 0.000000000000D+00-0.102445483208D-07 0.115000000000D+03
    0.792180000000D+05 0.400000000000D+01 0.000000000000D+00 0.000000000000D+00
22 21  2  1  0  0  0.0-0.687944702804D-03 0.716227077646D-11 0.000000000000D+00
    0.930000000000D+02-0.880312500000D+02 0.540593946479D-08 0.125868371279D+01
   -0.484101474285D-05 0.692270218860D-02 0.338256359100D-05 0.515361709213D+04
    0.864000000000D+05 0.130385160446D-06-0.488807926527D+00-0.726431608200D-07
    0.933756037361D+00 0.298562500000D+03-0.104338355016D+01-0.879786646645D-08
   -0.346085844436D-09 0.100000000000D+01 0.214300000000D+04 0.000000000000D+00
    0.200000000000D+01 0.000000000000D+00-0.181607902050D-07 0.930000000000D+02
    0.792180000000D+05 0.400000000000D+01 0.000000000000D+00 0.000000000000D+00
23 21  2  1  0  0  0.0 0.117763876915D-03 0.795807864051D-12 0.000000000000D+00
    0.142000000000D+03-0.100937500000D+03 0.459126267309D-08-0.166296026234D+00
   -0.525638461113D-05 0.106721522752D-02 0.512227416038D-05 0.515364280129D+04
    0.864000000000D+05-0.149011611938D-07-0.419251467621D+00-0.670552253723D-07
    0.963274137126D+00 0.285500000000D+03 0.238695967495D+01-0.832498962638D-08
   -0.420017495415D-09 0.100000000000D+01 0.214300000000D+04 0.000000000000D+00
    0.200000000000D+01 0.000000000000D+00-0.838190317154D-08 0.654000000000D+03
    0.792180000000D+05 0.400000000000D+01 0.000000000000D+00 0.000000000000D+00
24 21  2  1  0  0  0.0 0.292900949717D-05-0.454747350886D-12 0.000000000000D+00
    0.820000000000D+02 0.562187500000D+02 0.549344310967D-08 0.421648751477D+00
    0.289827585220D-05 0.108902755892D-01 0.641494989395D-05 0.515361214447D+04
    0.864000000000D+05-0.521540641785D-07 0.163306273283D+01 0.244006514549D-06
    0.934985543935D+00 0.245031250000D+03 0.726311515139D+00-0.870286250916D-08
    0.430375069706D-09 0.100000000000D+01 0.214300000000D+04 0.000000000000D+00
    0.200000000000D+01 0.000000000000D+00 0.279396772385D-08 0.820000000000D+02
    0.847690000000D+05 0.400000000000D+01 0.000000000000D+00 0.000000000000D+00
25 21  2  1  0  0  0.0 0.713132321835D-04 0.773070496507D-11 0.000000000000D+00
    0.840000000000D+02-0.357187500000D+02 0.486841707483D-08-0.156400419126D+01
   -0.181049108505D-05 0.975031568669D-02 0.693462789059D-05 0.515366636276D+04
    0.864000000000D+05 0.178813934326D-06 0.274689969940D+01 0.298023223877D-07
    0.962518199078D+00 0.244406250000D+03 0.937119092920D+00-0.814176770873D-08
   -0.388230457071D-09 0.100000000000D+01 0.214300000000D+04 0.000000000000D+00
    0.200000000000D+01 0.000000000000D+00 0.558793544769D-08 0.840000000000D+02
    0.792180000000D+05 0.400000000000D+01 0.000000000000D+00 0.000000000000D+00
26 21  2  1  0  0  0.0 0.382848083973D-04 0.557065504836D-11 0.000000000000D+00
    0.181000000000D+03-0.403750000000D+02 0.534950854279D-08-0.218084079350D+01
   -0.232458114624D-05 0.568531127647D-02 0.679120421410D-05 0.515374157906D+04
    0.864000000000D+05 0.186264514923D-07 0.270699309358D+01-0.117346644402D-06
    0.943451134870D+00 0.240812500000D+03 0.263253034391D+00-0.848213902942D-08
   -0.390016245742D-09 0.100000000000D+01 0.214300000000D+04 0.000000000000D+00
    0.280000000000D+01 0.000000000000D+00 0.698491930962D-08 0.181000000000D+03
    0.792180000000D+05 0.400000000000D+01 0.000000000000D+00 0.000000000000D+00
27 21  2  1  0  0  0.0-0.673732720316D-04-0.761701812735D-11 0.000000000000D+00
    0.360000000000D+02 0.535625000000D+02 0.394945022474D-08 0.227583820534D+01
    0.274181365967D-05 0.897269323468D-02 0.131968408823D-04 0.515368426514D+04
    0.864000000000D+05-0.189989805222D-06-0.248930567686D+01-0.126659870148D-06
    0.976975899539D+00 0.132593750000D+03 0.570213607868D+00-0.765210445515D-08
   -0.106433004790D-09 0.100000000000D+01 0.214300000000D+04 0.000000000000D+00
    0.200000000000D+01 0.000000000000D+00 0.186264514923D-08 0.360000000000D+02
    0.792180000000D+05 0.400000000000D+01 0.000000000000D+00 0.000000000000D+00
28 21  2  1  0  0  0.0 0.621936749667D-03-0.522959453519D-11 0.000000000000D+00
    0.320000000000D+02-0.390937500000D+02 0.441911264521D-08 0.299925651178D+01
   -0.198930501938D-05 0.179731015815D-01 0.749155879021D-05 0.515366543198D+04
    0.864000000000D+05 0.331550836563D-06 0.284128319766D+01 0.782310962677D-07
    0.974450671793D+00 0.238250000000D+03-0.135335023011D+01-0.776282335275D-08
   -0.492877673191D-09 0.100000000000D+01 0.214300000000D+04 0.000000000000D+00
    0.200000000000D+01 0.000000000000D+00-0.111758708954D-07 0.320000000000D+02
    0.796680000000D+05 0.400000000000D+01 0.000000000000D+00 0.000000000000D+00
